DUBAISAT-1              
1 35682U 09041B   26156.89673094  .00001012  00000+0  15747-3 0  9994
2 35682  98.0039 290.2794 0011726 105.7067 254.5437 14.75106477903432
OCEANSAT-2              
1 35931U 09051A   26157.61965321  .00000152  00000+0  12941-3 0  9997
2 35931  98.2323 145.5253 0014576 268.5099  91.4398 13.99663458877850
WORLDVIEW-2 (WV-2)      
1 35946U 09055A   26157.58670709  .00000140  00000+0  60753-4 0  9998
2 35946  98.4737 231.1822 0003203 247.2868 112.7980 14.37896370874129
SMOS                    
1 36036U 09059A   26157.48718443  .00000267  00000+0  99007-4 0  9994
2 36036  98.4426 344.9790 0001340  91.3547 268.7794 14.39766844871917
YAOGAN-7                
1 36110U 09069A   26157.39223266  .00000575  00000+0  86624-4 0  9995
2 36110  98.0084  43.3254 0025994  74.9515 285.4570 14.77999075888039
TANDEM-X                
1 36605U 10030A   26157.45519334  .00000875  00000+0  44865-4 0  9999
2 36605  97.4458 165.3146 0001793  98.1824 261.9614 15.19152152885010
CARTOSAT-2B             
1 36795U 10035A   26157.58013150  .00001012  00000+0  14518-3 0  9998
2 36795  97.9953 208.1970 0010339 220.4179 139.6264 14.78649299858283
YAOGAN-10               
1 36834U 10038A   26157.65561020  .00002378  00000+0  28299-3 0  9994
2 36834  97.8978 181.1442 0001679  86.9822  57.8469 14.85318342855649
COSMO-SKYMED 4          
1 37216U 10060A   26157.64204910  .00000088  00000+0  17638-4 0  9997
2 37216  97.8887 341.3946 0001423  82.3896 277.7479 14.82159712843002
RESOURCESAT-2           
1 37387U 11015A   26157.60199219  .00000097  00000+0  64625-4 0  9996
2 37387  98.7645 225.1165 0010148 289.6685  70.3396 14.21604264784679
HAIYANG-2A              
1 37781U 11043A   26157.62890786  .00000012  00000+0  58378-4 0  9999
2 37781  99.3394 160.5374 0006210 112.4169 247.7639 13.74549942745208
RASAT                   
1 37791U 11044D   26157.62241398  .00000481  00000+0  91976-4 0  9991
2 37791  98.0571 249.1806 0019420 223.6541 243.8741 14.68156351791633
SRMSAT                  
1 37841U 11058D   26157.27188351  .00000385  00000+0  65061-4 0  9991
2 37841  19.9704 125.5359 0011947  84.3565  18.6414 14.11573396756279
PLEIADES 1A             
1 38012U 11076F   26157.63810907  .00000344  00000+0  83781-4 0  9995
2 38012  98.1973 232.8820 0001483  97.9933   7.9944 14.58564674770450
ZIYUAN 1-02C (ZY 1-02C) 
1 38038U 11079A   26157.64796642  .00000638  00000+0  22414-3 0  9997
2 38038  98.4069 225.1765 0006203 351.6287 111.9197 14.38207187757695
ARIRANG-3 (KOMPSAT-3)   
1 38338U 12025B   26157.63122653  .00000507  00000+0  10995-3 0  9992
2 38338  98.1171 115.2738 0006196 136.6411 223.5279 14.62197005749808
EXACTVIEW-1 (ADS-1B)    
1 38709U 12039C   26157.56800825  .00000139  00000+0  79436-4 0  9992
2 38709  98.9765 274.7191 0010585 196.7561 163.3270 14.24981483721194
SPOT 6                  
1 38755U 12047A   26157.56461235  .00000260  00000+0  65860-4 0  9991
2 38755  98.2117 224.9975 0001446  93.9259 266.2106 14.58556698731504
PLEIADES 1B             
1 39019U 12068A   26157.58350961  .00000292  00000+0  72660-4 0  9994
2 39019  98.1944 232.7810 0001581  95.2957 264.8423 14.58554168719300
GOKTURK 2               
1 39030U 12073A   26157.56974103  .00000393  00000+0  64675-4 0  9990
2 39030  97.6823 355.5330 0001957  62.6958 297.4452 14.75531451722947
LANDSAT 8               
1 39084U 13008A   26157.51822262  .00000361  00000+0  90325-4 0  9997
2 39084  98.2303 227.7798 0001457  96.5972 263.5392 14.57111694696345
SARAL                   
1 39086U 13009A   26157.63613153  .00000094  00000+0  50663-4 0  9994
2 39086  98.5558 344.3372 0001302 357.3921   2.7256 14.32853403694093
GAOFEN-1                
1 39150U 13018A   26157.55905946 -.00000012  00000+0  55501-5 0  9999
2 39150  97.9100 229.8429 0015876 303.0721  56.8964 14.76524766706677
VNREDSAT 1              
1 39160U 13021B   26157.56968880  .00000445  00000+0  91855-4 0  9991
2 39160  97.9081 211.3930 0001661  90.3969 269.7425 14.64845357698739
ARIRANG-5 (KOMPSAT-5)   
1 39227U 13042A   26157.59115794  .00002032  00000+0  14932-3 0  9993
2 39227  97.6210 344.4401 0004015 149.0184 211.1280 15.04550737702266
SKYSAT-A                
1 39418U 13066C   26157.41069620  .00004066  00000+0  23328-3 0  9996
2 39418  97.3819 207.1514 0021144 356.1688   3.9378 15.12917048686854
DUBAISAT-2              
1 39419U 13066D   26157.60160405  .00003558  00000+0  22186-3 0  9997
2 39419  97.4564 148.0241 0012995  72.0568 288.2077 15.10097340684795
GPM-CORE                
1 39574U 14009C   26157.59270552  .00008230  00000+0  17588-3 0  9992
2 39574  64.9731 343.6243 0012054 269.3737  90.6023 15.45420722696175
SENTINEL-1A             
1 39634U 14016A   26157.60178715  .00000123  00000+0  35753-4 0  9995
2 39634  98.1780 165.2892 0001442  80.8024 279.3339 14.59199639648477
KAZEOSAT 1              
1 39731U 14024A   26157.61398589  .00000198  00000+0  73210-4 0  9998
2 39731  98.3203 230.3239 0001508  74.9854 285.1503 14.42076180637039
