OBJECT_NAME,OBJECT_ID,EPOCH,MEAN_MOTION,ECCENTRICITY,INCLINATION,RA_OF_ASC_NODE,ARG_OF_PERICENTER,MEAN_ANOMALY,EPHEMERIS_TYPE,CLASSIFICATION_TYPE,NORAD_CAT_ID,ELEMENT_SET_NO,REV_AT_EPOCH,BSTAR,MEAN_MOTION_DOT,MEAN_MOTION_DDOT
DUBAISAT-1,2009-041B,2026-06-05T21:31:17.553216,14.75106477,.0011726,98.0039,290.2794,105.7067,254.5437,0,U,35682,999,90343,.15747E-3,.1012E-4,0
OCEANSAT-2,2009-051A,2026-06-06T14:52:18.037344,13.99663458,.00145764,98.2323,145.5253,268.5099,91.4398,0,U,35931,999,87785,.12940947E-3,.152E-5,0
WORLDVIEW-2 (WV-2),2009-055A,2026-06-06T14:04:51.492576,14.37896370,.00032035,98.4737,231.1822,247.2868,112.7980,0,U,35946,999,87412,.60752822E-4,.14E-5,0
SMOS,2009-059A,2026-06-06T11:41:32.734752,14.39766844,.00013403,98.4426,344.9790,91.3547,268.7794,0,U,36036,999,87191,.99006893E-4,.267E-5,0
YAOGAN-7,2009-069A,2026-06-06T09:24:48.901824,14.77999075,.00259942,98.0084,43.3254,74.9515,285.4570,0,U,36110,999,88803,.86623556E-4,.575E-5,0
TANDEM-X,2010-030A,2026-06-06T10:55:28.704576,15.19152152,.00017936,97.4458,165.3146,98.1824,261.9614,0,U,36605,999,88501,.44864655E-4,.875E-5,0
CARTOSAT-2B,2010-035A,2026-06-06T13:55:23.361600,14.78649299,.00103396,97.9953,208.1970,220.4179,139.6264,0,U,36795,999,85828,.1451819E-3,.1012E-4,0
YAOGAN-10,2010-038A,2026-06-06T15:44:04.721280,14.85318342,.00016795,97.8978,181.1442,86.9822,57.8469,0,U,36834,999,85564,.28298958E-3,.2378E-4,0
COSMO-SKYMED 4,2010-060A,2026-06-06T15:24:33.042240,14.82159712,.00014238,97.8887,341.3946,82.3896,277.7479,0,U,37216,999,84300,.17638425E-4,.88E-6,0
RESOURCESAT-2,2011-015A,2026-06-06T14:26:52.125216,14.21604264,.00101489,98.7645,225.1165,289.6685,70.3396,0,U,37387,999,78467,.6462471E-4,.97E-6,0
HAIYANG-2A,2011-043A,2026-06-06T15:05:37.639104,13.74549942,.00062101,99.3394,160.5374,112.4169,247.7639,0,U,37781,999,74520,.58377587E-4,.12E-6,0
RASAT,2011-044D,2026-06-06T14:56:16.567872,14.68156351,.00194203,98.0571,249.1806,223.6541,243.8741,0,U,37791,999,79163,.91975555E-4,.481E-5,0
SRMSAT,2011-058D,2026-06-06T06:31:30.735264,14.11573396,.00119474,19.9704,125.5359,84.3565,18.6414,0,U,37841,999,75627,.65061068E-4,.385E-5,0
PLEIADES 1A,2011-076F,2026-06-06T15:18:52.623648,14.58564674,.00014833,98.1973,232.8820,97.9933,7.9944,0,U,38012,999,77045,.83780514E-4,.344E-5,0
ZIYUAN 1-02C (ZY 1-02C),2011-079A,2026-06-06T15:33:04.298688,14.38207187,.00062038,98.4069,225.1765,351.6287,111.9197,0,U,38038,999,75769,.22413944E-3,.638E-5,0
ARIRANG-3 (KOMPSAT-3),2012-025B,2026-06-06T15:08:57.972192,14.62197005,.0006196,98.1171,115.2738,136.6411,223.5279,0,U,38338,999,74980,.10995394E-3,.507E-5,0
EXACTVIEW-1 (ADS-1B),2012-039C,2026-06-06T13:37:55.912800,14.24981483,.0010585,98.9765,274.7191,196.7561,163.3270,0,U,38709,999,72119,.79435503E-4,.139E-5,0
SPOT 6,2012-047A,2026-06-06T13:33:02.507040,14.58556698,.00014468,98.2117,224.9975,93.9259,266.2106,0,U,38755,999,73150,.65859681E-4,.26E-5,0
PLEIADES 1B,2012-068A,2026-06-06T14:00:15.230304,14.58554168,.00015816,98.1944,232.7810,95.2957,264.8423,0,U,39019,999,71930,.72660461E-4,.292E-5,0
GOKTURK 2,2012-073A,2026-06-06T13:40:25.624992,14.75531451,.00019579,97.6823,355.5330,62.6958,297.4452,0,U,39030,999,72294,.64674823E-4,.393E-5,0
LANDSAT 8,2013-008A,2026-06-06T12:26:14.434368,14.57111694,.00014579,98.2303,227.7798,96.5972,263.5392,0,U,39084,999,69634,.90325095E-4,.361E-5,0
SARAL,2013-009A,2026-06-06T15:16:01.764192,14.32853403,.00013022,98.5558,344.3372,357.3921,2.7256,0,U,39086,999,69409,.50662758E-4,.94E-6,0
GAOFEN-1,2013-018A,2026-06-06T13:25:02.737344,14.76524766,.00158766,97.9100,229.8429,303.0721,56.8964,0,U,39150,999,70667,.555005E-5,-.12E-6,0
VNREDSAT 1,2013-021B,2026-06-06T13:40:21.112320,14.64845357,.00016612,97.9081,211.3930,90.3969,269.7425,0,U,39160,999,69873,.9185531E-4,.445E-5,0
ARIRANG-5 (KOMPSAT-5),2013-042A,2026-06-06T14:11:16.046016,15.04550737,.00040153,97.6210,344.4401,149.0184,211.1280,0,U,39227,999,70226,.14931701E-3,.2032E-4,0
SKYSAT-A,2013-066C,2026-06-06T09:51:24.151680,15.12917048,.00211442,97.3819,207.1514,356.1688,3.9378,0,U,39418,999,68685,.23328376E-3,.4066E-4,0
DUBAISAT-2,2013-066D,2026-06-06T14:26:18.589920,15.10097340,.00129957,97.4564,148.0241,72.0568,288.2077,0,U,39419,999,68479,.22186499E-3,.3558E-4,0
GPM-CORE,2014-009C,2026-06-06T14:13:29.756928,15.45420722,.00120547,64.9731,343.6243,269.3737,90.6023,0,U,39574,999,69617,.17588434E-3,.823E-4,0
SENTINEL-1A,2014-016A,2026-06-06T14:26:34.409760,14.59199639,.00014428,98.1780,165.2892,80.8024,279.3339,0,U,39634,999,64847,.35752528E-4,.123E-5,0
KAZEOSAT 1,2014-024A,2026-06-06T14:44:08.380896,14.42076180,.00015089,98.3203,230.3239,74.9854,285.1503,0,U,39731,999,63703,.73210252E-4,.198E-5,0
